NORAD_CAT_ID,OBJECT_NAME,OBJECT_TYPE,EPOCH,MEAN_MOTION,ECCENTRICITY,INCLINATION,RA_OF_ASC_NODE,ARG_OF_PERICENTER,MEAN_ANOMALY,BSTAR,MEAN_MOTION_DOT,MEAN_MOTION_DDOT,TLE_LINE0,TLE_LINE1,TLE_LINE2,SEMIMAJOR_AXIS,PERIOD,APOGEE,PERIGEE,DECAYED
52491.0,STARLINK-3908,PAYLOAD,2023-03-16 18:46:21,15.08828712,0.0001141,53.215,257.4184,88.7703,271.342,2.4115e-05,9.6e-07,0.0,0 STARLINK-3908,1 52491U 22049AS  23075.78219175  .00000096  00000-0  24115-4 0  9997,2 52491  53.2150 257.4184 0001141  88.7703 271.3420 15.08828712 48003,6917.915,95.438,540.569,538.991,0.0
52491.0,STARLINK-3908,PAYLOAD,2023-03-16 21:57:07,15.08829888,0.0001259,53.2135,256.8234,94.5261,265.5875,0.00022541,3.3e-05,0.0,0 STARLINK-3908,1 52491U 22049AS  23075.91467270  .00003300  00000-0  22541-3 0  9994,2 52491  53.2135 256.8234 0001259  94.5261 265.5875 15.08829888 48182,6917.911,95.438,540.647,538.905,0.0
52491.0,STARLINK-3908,PAYLOAD,2023-03-17 12:15:36,15.08835337,0.0001211,53.2126,254.1461,92.568,267.5451,0.00060352,9.329e-05,0.0,0 STARLINK-3908,1 52491U 22049AS  23076.51083727  .00009329  00000-0  60352-3 0  9991,2 52491  53.2126 254.1461 0001211  92.5680 267.5451 15.08835337 48117,6917.895,95.438,540.597,538.922,0.0
52491.0,STARLINK-3908,PAYLOAD,2023-03-17 18:37:08,15.08847831,0.0001199,53.2126,252.9566,92.2003,267.9127,0.0008409,0.00013123,0.0,0 STARLINK-3908,1 52491U 22049AS  23076.77579538  .00013123  00000-0  84090-3 0  9991,2 52491  53.2126 252.9566 0001199  92.2003 267.9127 15.08847831 48150,6917.856,95.437,540.551,538.892,0.0
52491.0,STARLINK-3908,PAYLOAD,2023-03-18 04:09:27,15.08845379,0.0001412,53.213,251.1723,92.7371,267.3782,0.00039246,5.964e-05,0.0,0 STARLINK-3908,1 52491U 22049AS  23077.17323391  .00005964  00000-0  39246-3 0  9997,2 52491  53.2130 251.1723 0001412  92.7371 267.3782 15.08845379 48372,6917.864,95.437,540.706,538.752,0.0
52491.0,STARLINK-3908,PAYLOAD,2023-03-18 21:38:41,15.08856037,0.0001197,53.2142,247.9023,94.58,265.5329,0.00041119,6.265e-05,0.0,0 STARLINK-3908,1 52491U 22049AS  23077.90186756  .00006265  00000-0  41119-3 0  9997,2 52491  53.2142 247.9023 0001197  94.5800 265.5329 15.08856037 48323,6917.831,95.437,540.524,538.868,0.0
52491.0,STARLINK-3908,PAYLOAD,2023-03-19 04:00:14,15.08843976,0.0001215,53.215,246.7097,86.8916,273.2215,8.4198e-05,1.053e-05,0.0,0 STARLINK-3908,1 52491U 22049AS  23078.16683096  .00001053  00000-0  84198-4 0  9990,2 52491  53.2150 246.7097 0001215  86.8916 273.2215 15.08843976 48523,6917.868,95.437,540.574,538.893,0.0
52491.0,STARLINK-3908,PAYLOAD,2023-03-19 11:57:09,15.08843729,0.0001182,53.2157,245.2232,95.3406,264.7721,-3.3001e-05,-8.13e-06,0.0,0 STARLINK-3908,1 52491U 22049AS  23078.49802989 -.00000813  00000-0 -33001-4 0  9992,2 52491  53.2157 245.2232 0001182  95.3406 264.7721 15.08843729 48418,6917.869,95.437,540.552,538.916,0.0
52491.0,STARLINK-3908,PAYLOAD,2023-03-19 19:54:05,15.08846955,0.0001289,53.215,243.74,106.3143,253.7991,0.00014306,1.99e-05,0.0,0 STARLINK-3908,1 52491U 22049AS  23078.82922885  .00001990  00000-0  14306-3 0  9998,2 52491  53.2150 243.7400 0001289 106.3143 253.7991 15.08846955 48466,6917.859,95.437,540.616,538.832,0.0
52491.0,STARLINK-3908,PAYLOAD,2023-03-20 03:51:01,15.08837652,0.0001144,53.2148,242.2519,84.0004,276.1118,-8.4073e-06,-4.22e-06,0.0,0 STARLINK-3908,1 52491U 22049AS  23079.16043222 -.00000422  00000-0 -84073-5 0  9996,2 52491  53.2148 242.2519 0001144  84.0004 276.1118 15.08837652 48673,6917.888,95.438,540.544,538.961,0.0
52491.0,STARLINK-3908,PAYLOAD,2023-03-20 18:09:29,15.08832105,0.0001182,53.2141,239.5748,78.2669,281.8456,0.0001043,1.372e-05,0.0,0 STARLINK-3908,1 52491U 22049AS  23079.75659709  .00001372  00000-0  10430-3 0  9991,2 52491  53.2141 239.5748 0001182  78.2669 281.8456 15.08832105 48602,6917.905,95.438,540.587,538.952,0.0
52491.0,STARLINK-3908,PAYLOAD,2023-03-20 19:44:53,15.08838776,0.0001285,53.2148,239.2786,80.4085,279.7052,0.00014425,2.009e-05,0.0,0 STARLINK-3908,1 52491U 22049AS  23079.82283614  .00002009  00000-0  14425-3 0  9993,2 52491  53.2148 239.2786 0001285  80.4085 279.7052 15.08838776 48618,6917.884,95.438,540.638,538.86,0.0
52491.0,STARLINK-3908,PAYLOAD,2023-03-22 05:07:58,15.08850506,0.0001277,53.2139,233.0341,78.7698,281.3438,0.00038523,5.85e-05,0.0,0 STARLINK-3908,1 52491U 22049AS  23081.21387215  .00005850  00000-0  38523-3 0  9993,2 52491  53.2139 233.0341 0001277  78.7698 281.3438 15.08850506 48980,6917.848,95.437,540.597,538.83,0.0
52491.0,STARLINK-3908,PAYLOAD,2023-03-22 19:26:26,15.08853254,0.0001021,53.2143,230.3553,89.6118,270.4991,0.00021797,3.184e-05,0.0,0 STARLINK-3908,1 52491U 22049AS  23081.81002422  .00003184  00000-0  21797-3 0  9996,2 52491  53.2143 230.3553 0001021  89.6118 270.4991 15.08853254 48914,6917.84,95.437,540.411,538.999,0.0
52491.0,STARLINK-3908,PAYLOAD,2023-03-23 03:23:22,15.08836024,0.0001076,53.2149,228.8715,69.5387,290.5721,-7.6567e-05,-1.506e-05,0.0,0 STARLINK-3908,1 52491U 22049AS  23082.14123444 -.00001506  00000-0 -76567-4 0  9995,2 52491  53.2149 228.8715 0001076  69.5387 290.5721 15.08836024 49121,6917.893,95.438,540.502,539.013,0.0
52491.0,STARLINK-3908,PAYLOAD,2023-03-23 14:31:04,15.08844955,0.0001101,53.2142,226.7869,95.5467,264.565,0.00058427,9.024e-05,0.0,0 STARLINK-3908,1 52491U 22049AS  23082.60491464  .00009024  00000-0  58427-3 0  9991,2 52491  53.2142 226.7869 0001101  95.5467 264.5650 15.08844955 49032,6917.865,95.437,540.492,538.969,0.0
52491.0,STARLINK-3908,PAYLOAD,2023-03-23 19:17:13,15.08872269,0.0001064,53.2144,225.8954,91.9229,268.1885,0.0032029,0.00051101,0.0,0 STARLINK-3908,1 52491U 22049AS  23082.80363249  .00051101  00000-0  32029-2 0  9994,2 52491  53.2144 225.8954 0001064  91.9229 268.1885 15.08872269 49223,6917.782,95.436,540.383,538.911,0.0
52491.0,STARLINK-3908,PAYLOAD,2023-03-23 22:27:59,15.08889182,0.000107,53.2145,225.3002,94.4114,265.7001,0.0036489,0.00058344,0.0,0 STARLINK-3908,1 52491U 22049AS  23082.93610871  .00058344  00000-0  36489-2 0  9994,2 52491  53.2145 225.3002 0001070  94.4114 265.7001 15.08889182 49080,6917.73,95.434,540.335,538.855,0.0
52491.0,STARLINK-3908,PAYLOAD,2023-03-24 00:03:23,15.08861907,0.0001221,53.2147,225.003,88.3862,271.727,0.0017327,0.00027412,0.0,0 STARLINK-3908,1 52491U 22049AS  23083.00235163  .00027412  00000-0  17327-2 0  9992,2 52491  53.2147 225.0030 0001221  88.3862 271.7270 15.08861907 49259,6917.813,95.436,540.523,538.834,0.0
52491.0,STARLINK-3908,PAYLOAD,2023-03-24 04:49:32,15.08926226,0.0001195,53.2148,224.1108,91.0573,269.0556,0.0059558,0.00096019,0.0,0 STARLINK-3908,1 52491U 22049AS  23083.20106645  .00096019  00000-0  59558-2 0  9997,2 52491  53.2148 224.1108 0001195  91.0573 269.0556 15.08926226 49282,6917.617,95.432,540.308,538.655,0.0
52491.0,STARLINK-3908,PAYLOAD,2023-03-24 12:46:26,15.08922214,0.0001282,53.2149,222.624,91.1624,268.9515,0.0035669,0.00057068,0.0,0 STARLINK-3908,1 52491U 22049AS  23083.53225361  .00057068  00000-0  35669-2 0  9998,2 52491  53.2149 222.6240 0001282  91.1624 268.9515 15.08922214 49330,6917.629,95.432,540.381,538.607,0.0
52491.0,STARLINK-3908,PAYLOAD,2023-03-24 14:21:49,15.08932046,0.0001267,53.215,222.3268,91.8726,268.2411,0.0039726,0.00063668,0.0,0 STARLINK-3908,1 52491U 22049AS  23083.59848992  .00063668  00000-0  39726-2 0  9996,2 52491  53.2150 222.3268 0001267  91.8726 268.2411 15.08932046 49187,6917.599,95.432,540.341,538.588,0.0
52491.0,STARLINK-3908,PAYLOAD,2023-03-24 22:18:44,15.08851152,0.0001388,53.215,220.8398,100.6064,259.5084,-0.0020773,-0.00033206,0.0,0 STARLINK-3908,1 52491U 22049AS  23083.92967807 -.00033206  00000-0 -20773-2 0  9999,2 52491  53.2150 220.8398 0001388 100.6064 259.5084 15.08851152 49235,6917.846,95.437,540.671,538.751,0.0
52491.0,STARLINK-3908,PAYLOAD,2023-03-25 04:40:18,15.08777597,0.0001274,53.215,219.65,105.6014,254.5118,-0.0048337,-0.00076271,0.0,0 STARLINK-3908,1 52491U 22049AS  23084.19465423 -.00076271  00000-0 -48337-2 0  9991,2 52491  53.2150 219.6500 0001274 105.6014 254.5118 15.08777597 49435,6918.071,95.442,540.817,539.055,0.0
52491.0,STARLINK-3908,PAYLOAD,2023-03-25 18:58:50,15.08749011,0.0001219,53.215,216.9746,100.9958,259.1171,0.0026116,0.00041416,0.0,0 STARLINK-3908,1 52491U 22049AS  23084.79086015  .00041416  00000-0  26116-2 0  9995,2 52491  53.2150 216.9746 0001219 100.9958 259.1171 15.08749011 49521,6918.159,95.443,540.867,539.18,0.0
52491.0,STARLINK-3908,PAYLOAD,2023-03-25 22:09:36,15.08806579,0.0001181,53.2147,216.3795,95.7898,264.3229,0.0051147,0.00081985,0.0,0 STARLINK-3908,1 52491U 22049AS  23084.92334159  .00081985  00000-0  51147-2 0  9992,2 52491  53.2147 216.3795 0001181  95.7898 264.3229 15.08806579 49386,6917.983,95.44,540.665,539.031,0.0
52491.0,STARLINK-3908,PAYLOAD,2023-03-26 01:20:23,15.08831798,0.0001175,53.2148,215.7856,87.9166,272.1961,0.0043149,0.00069041,0.0,0 STARLINK-3908,1 52491U 22049AS  23085.05582358  .00069041  00000-0  43149-2 0  9995,2 52491  53.2148 215.7856 0001175  87.9166 272.1961 15.08831798 49563,6917.905,95.438,540.583,538.958,0.0
52491.0,STARLINK-3908,PAYLOAD,2023-03-26 12:28:04,15.08877576,0.0001189,53.2147,213.7036,85.9317,274.1811,0.0031492,0.00050241,0.0,0 STARLINK-3908,1 52491U 22049AS  23085.51949701  .00050241  00000-0  31492-2 0  9995,2 52491  53.2147 213.7036 0001189  85.9317 274.1811 15.08877576 49639,6917.766,95.435,540.453,538.808,0.0
52491.0,STARLINK-3908,PAYLOAD,2023-03-26 22:00:22,15.08851951,0.0001735,53.2144,211.9192,59.533,300.5834,-0.00095819,-0.0001551,0.0,0 STARLINK-3908,1 52491U 22049AS  23085.91693055 -.00015510  00000-0 -95819-3 0  9993,2 52491  53.2144 211.9192 0001735  59.5330 300.5834 15.08851951 49535,6917.844,95.437,540.909,538.509,0.0
52491.0,STARLINK-3908,PAYLOAD,2023-03-27 02:46:31,15.08851759,0.0001212,53.2143,211.0272,98.4654,261.6476,-0.00088844,-0.00014404,0.0,0 STARLINK-3908,1 52491U 22049AS  23086.11564586 -.00014404  00000-0 -88844-3 0  9993,2 52491  53.2143 211.0272 0001212  98.4654 261.6476 15.08851759 49721,6917.844,95.437,540.548,538.871,0.0
